ONEWEB-0273             
1 48991U 21060AA  25296.40864565  .00000158  00000+0  37973-3 0  9997
2 48991  87.8981 275.9491 0002007  93.4977 266.6383 13.16593721208438
ONEWEB-0274             
1 48992U 21060AB  25296.50998653  .00000012  00000+0 -19206-5 0  9996
2 48992  87.8971 275.9572 0001512  89.8384 270.2920 13.16595215208482
ONEWEB-0275             
1 48993U 21060AC  25296.42290767  .00000040  00000+0  71976-4 0  9990
2 48993  87.8982 275.9401 0001821  89.8042 270.3298 13.16595794208403
ONEWEB-0276             
1 48994U 21060AD  25296.45615198  .00000002  00000+0 -29523-4 0  9993
2 48994  87.8981 275.9324 0002088  88.1921 271.9449 13.16594724208420
ONEWEB-0277             
1 48995U 21060AE  25296.46885269  .00000131  00000+0  30775-3 0  9995
2 48995  87.8969 275.9594 0001741  94.2467 265.8863 13.16593565208417
ONEWEB-0278             
1 48996U 21060AF  25296.45931830  .00000038  00000+0  65564-4 0  9992
2 48996  87.8980 275.9286 0002097  83.4750 276.6620 13.16595589208542
ONEWEB-0279             
1 48997U 21060AG  25296.46722350  .00000199  00000+0  48652-3 0  9995
2 48997  87.8986 275.9225 0001785  96.6494 263.4840 13.16592569208471
ONEWEB-0280             
1 48998U 21060AH  25296.48228707  .00000046  00000+0  85823-4 0  9998
2 48998  87.8983 275.9272 0002269  89.7584 270.3807 13.16593258208412
ONEWEB-0281             
1 48999U 21060AJ  25296.41180727  .00000124  00000+0  29055-3 0  9992
2 48999  87.8980 275.9373 0001770  86.3532 273.7801 13.16592839208475
ONEWEB-0282             
1 49000U 21060AK  25296.44190977 -.00000016  00000+0 -74269-4 0  9997
2 49000  87.8983 275.9422 0001981  91.1292 269.0066 13.16594499208451
ONEWEB-0283             
1 49001U 21060AL  25296.50680440 -.00000001  00000+0 -36270-4 0  9998
2 49001  87.8981 275.9298 0001869  92.2345 267.9000 13.16592925208476
ONEWEB-0284             
1 49002U 21060AM  25296.50048733  .00000092  00000+0  20827-3 0  9990
2 49002  87.8991 275.9164 0002269  85.3063 274.8327 13.16594084208450
ONEWEB-0285             
1 49075U 21075A   25296.64886117  .00000433  00000+0  11673-2 0  9994
2 49075  87.8966  37.6470 0001819 101.9349 258.1983 13.12445456204180
ONEWEB-0286             
1 49076U 21075B   25296.24956375 -.00000158  00000+0 -47513-3 0  9994
2 49076  87.8963  37.7620 0001608  96.1560 263.9752 13.12442901203484
ONEWEB-0287             
1 49077U 21075C   25296.62546760 -.00000051  00000+0 -16399-3 0  9990
2 49077  87.9122  52.9042 0001623  84.2891 275.8426 13.17647514202472
ONEWEB-0288             
1 49078U 21075D   25296.53029707 -.00000083  00000+0 -26487-3 0  9992
2 49078  87.8967  37.6657 0001844  97.8639 262.2699 13.12443865204142
ONEWEB-0289             
1 49079U 21075E   25296.58823325  .00000125  00000+0  28822-3 0  9996
2 49079  87.9110  52.9323 0002136  98.6409 261.4965 13.17648931203044
