[{"OBJECT_NAME":"ONEWEB-0273","OBJECT_ID":"2021-060AA","EPOCH":"2025-10-23T09:48:26.984160","MEAN_MOTION":13.16593721,"ECCENTRICITY":0.0002007,"INCLINATION":87.8981,"RA_OF_ASC_NODE":275.9491,"ARG_OF_PERICENTER":93.4977,"MEAN_ANOMALY":266.6383,"EPHEMERIS_TYPE":0,"CLASSIFICATION_TYPE":"U","NORAD_CAT_ID":48991,"ELEMENT_SET_NO":999,"REV_AT_EPOCH":20843,"BSTAR":0.00037973,"MEAN_MOTION_DOT":1.58e-6,"MEAN_MOTION_DDOT":0},{"OBJECT_NAME":"ONEWEB-0274","OBJECT_ID":"2021-060AB","EPOCH":"2025-10-23T12:14:22.836192","MEAN_MOTION":13.16595215,"ECCENTRICITY":0.0001512,"INCLINATION":87.8971,"RA_OF_ASC_NODE":275.9572,"ARG_OF_PERICENTER":89.8384,"MEAN_ANOMALY":270.292,"EPHEMERIS_TYPE":0,"CLASSIFICATION_TYPE":"U","NORAD_CAT_ID":48992,"ELEMENT_SET_NO":999,"REV_AT_EPOCH":20848,"BSTAR":-1.9206e-6,"MEAN_MOTION_DOT":1.2e-7,"MEAN_MOTION_DDOT":0},{"OBJECT_NAME":"ONEWEB-0275","OBJECT_ID":"2021-060AC","EPOCH":"2025-10-23T10:08:59.222688","MEAN_MOTION":13.16595794,"ECCENTRICITY":0.0001821,"INCLINATION":87.8982,"RA_OF_ASC_NODE":275.9401,"ARG_OF_PERICENTER":89.8042,"MEAN_ANOMALY":270.3298,"EPHEMERIS_TYPE":0,"CLASSIFICATION_TYPE":"U","NORAD_CAT_ID":48993,"ELEMENT_SET_NO":999,"REV_AT_EPOCH":20840,"BSTAR":7.1976e-5,"MEAN_MOTION_DOT":4.0e-7,"MEAN_MOTION_DDOT":0},{"OBJECT_NAME":"ONEWEB-0276","OBJECT_ID":"2021-060AD","EPOCH":"2025-10-23T10:56:51.531072","MEAN_MOTION":13.16594724,"ECCENTRICITY":0.0002088,"INCLINATION":87.8981,"RA_OF_ASC_NODE":275.9324,"ARG_OF_PERICENTER":88.1921,"MEAN_ANOMALY":271.9449,"EPHEMERIS_TYPE":0,"CLASSIFICATION_TYPE":"U","NORAD_CAT_ID":48994,"ELEMENT_SET_NO":999,"REV_AT_EPOCH":20842,"BSTAR":-2.9523e-5,"MEAN_MOTION_DOT":2.0e-8,"MEAN_MOTION_DDOT":0},{"OBJECT_NAME":"ONEWEB-0277","OBJECT_ID":"2021-060AE","EPOCH":"2025-10-23T11:15:08.872416","MEAN_MOTION":13.16593565,"ECCENTRICITY":0.0001741,"INCLINATION":87.8969,"RA_OF_ASC_NODE":275.9594,"ARG_OF_PERICENTER":94.2467,"MEAN_ANOMALY":265.8863,"EPHEMERIS_TYPE":0,"CLASSIFICATION_TYPE":"U","NORAD_CAT_ID":48995,"ELEMENT_SET_NO":999,"REV_AT_EPOCH":20841,"BSTAR":0.00030775,"MEAN_MOTION_DOT":1.31e-6,"MEAN_MOTION_DDOT":0},{"OBJECT_NAME":"ONEWEB-0278","OBJECT_ID":"2021-060AF","EPOCH":"2025-10-23T11:01:25.101120","MEAN_MOTION":13.16595589,"ECCENTRICITY":0.0002097,"INCLINATION":87.898,"RA_OF_ASC_NODE":275.9286,"ARG_OF_PERICENTER":83.475,"MEAN_ANOMALY":276.662,"EPHEMERIS_TYPE":0,"CLASSIFICATION_TYPE":"U","NORAD_CAT_ID":48996,"ELEMENT_SET_NO":999,"REV_AT_EPOCH":20854,"BSTAR":6.5564e-5,"MEAN_MOTION_DOT":3.8e-7,"MEAN_MOTION_DDOT":0},{"OBJECT_NAME":"ONEWEB-0279","OBJECT_ID":"2021-060AG","EPOCH":"2025-10-23T11:12:48.110400","MEAN_MOTION":13.16592569,"ECCENTRICITY":0.0001785,"INCLINATION":87.8986,"RA_OF_ASC_NODE":275.9225,"ARG_OF_PERICENTER":96.6494,"MEAN_ANOMALY":263.484,"EPHEMERIS_TYPE":0,"CLASSIFICATION_TYPE":"U","NORAD_CAT_ID":48997,"ELEMENT_SET_NO":999,"REV_AT_EPOCH":20847,"BSTAR":0.00048652,"MEAN_MOTION_DOT":1.99e-6,"MEAN_MOTION_DDOT":0},{"OBJECT_NAME":"ONEWEB-0280","OBJECT_ID":"2021-060AH","EPOCH":"2025-10-23T11:34:29.602848","MEAN_MOTION":13.16593258,"ECCENTRICITY":0.0002269,"INCLINATION":87.8983,"RA_OF_ASC_NODE":275.9272,"ARG_OF_PERICENTER":89.7584,"MEAN_ANOMALY":270.3807,"EPHEMERIS_TYPE":0,"CLASSIFICATION_TYPE":"U","NORAD_CAT_ID":48998,"ELEMENT_SET_NO":999,"REV_AT_EPOCH":20841,"BSTAR":8.5823e-5,"MEAN_MOTION_DOT":4.6e-7,"MEAN_MOTION_DDOT":0},{"OBJECT_NAME":"ONEWEB-0281","OBJECT_ID":"2021-060AJ","EPOCH":"2025-10-23T09:53:00.148128","MEAN_MOTION":13.16592839,"ECCENTRICITY":0.000177,"INCLINATION":87.898,"RA_OF_ASC_NODE":275.9373,"ARG_OF_PERICENTER":86.3532,"MEAN_ANOMALY":273.7801,"EPHEMERIS_TYPE":0,"CLASSIFICATION_TYPE":"U","NORAD_CAT_ID":48999,"ELEMENT_SET_NO":999,"REV_AT_EPOCH":20847,"BSTAR":0.00029055,"MEAN_MOTION_DOT":1.24e-6,"MEAN_MOTION_DDOT":0},{"OBJECT_NAME":"ONEWEB-0282","OBJECT_ID":"2021-060AK","EPOCH":"2025-10-23T10:36:21.004128","MEAN_MOTION":13.16594499,"ECCENTRICITY":0.0001981,"INCLINATION":87.8983,"RA_OF_ASC_NODE":275.9422,"ARG_OF_PERICENTER":91.1292,"MEAN_ANOMALY":269.0066,"EPHEMERIS_TYPE":0,"CLASSIFICATION_TYPE":"U","NORAD_CAT_ID":49000,"ELEMENT_SET_NO":999,"REV_AT_EPOCH":20845,"BSTAR":-7.4269e-5,"MEAN_MOTION_DOT":-1.6e-7,"MEAN_MOTION_DDOT":0},{"OBJECT_NAME":"ONEWEB-0283","OBJECT_ID":"2021-060AL","EPOCH":"2025-10-23T12:09:47.900160","MEAN_MOTION":13.16592925,"ECCENTRICITY":0.0001869,"INCLINATION":87.8981,"RA_OF_ASC_NODE":275.9298,"ARG_OF_PERICENTER":92.2345,"MEAN_ANOMALY":267.9,"EPHEMERIS_TYPE":0,"CLASSIFICATION_TYPE":"U","NORAD_CAT_ID":49001,"ELEMENT_SET_NO":999,"REV_AT_EPOCH":20847,"BSTAR":-3.627e-5,"MEAN_MOTION_DOT":-1.0e-8,"MEAN_MOTION_DDOT":0},{"OBJECT_NAME":"ONEWEB-0284","OBJECT_ID":"2021-060AM","EPOCH":"2025-10-23T12:00:42.105312","MEAN_MOTION":13.16594084,"ECCENTRICITY":0.0002269,"INCLINATION":87.8991,"RA_OF_ASC_NODE":275.9164,"ARG_OF_PERICENTER":85.3063,"MEAN_ANOMALY":274.8327,"EPHEMERIS_TYPE":0,"CLASSIFICATION_TYPE":"U","NORAD_CAT_ID":49002,"ELEMENT_SET_NO":999,"REV_AT_EPOCH":20845,"BSTAR":0.00020827,"MEAN_MOTION_DOT":9.2e-7,"MEAN_MOTION_DDOT":0},{"OBJECT_NAME":"ONEWEB-0285","OBJECT_ID":"2021-075A","EPOCH":"2025-10-23T15:34:21.605088","MEAN_MOTION":13.12445456,"ECCENTRICITY":0.0001819,"INCLINATION":87.8966,"RA_OF_ASC_NODE":37.647,"ARG_OF_PERICENTER":101.9349,"MEAN_ANOMALY":258.1983,"EPHEMERIS_TYPE":0,"CLASSIFICATION_TYPE":"U","NORAD_CAT_ID":49075,"ELEMENT_SET_NO":999,"REV_AT_EPOCH":20418,"BSTAR":0.0011673,"MEAN_MOTION_DOT":4.33e-6,"MEAN_MOTION_DDOT":0},{"OBJECT_NAME":"ONEWEB-0286","OBJECT_ID":"2021-075B","EPOCH":"2025-10-23T05:59:22.308000","MEAN_MOTION":13.12442901,"ECCENTRICITY":0.0001608,"INCLINATION":87.8963,"RA_OF_ASC_NODE":37.762,"ARG_OF_PERICENTER":96.156,"MEAN_ANOMALY":263.9752,"EPHEMERIS_TYPE":0,"CLASSIFICATION_TYPE":"U","NORAD_CAT_ID":49076,"ELEMENT_SET_NO":999,"REV_AT_EPOCH":20348,"BSTAR":-0.00047513,"MEAN_MOTION_DOT":-1.58e-6,"MEAN_MOTION_DDOT":0},{"OBJECT_NAME":"ONEWEB-0287","OBJECT_ID":"2021-075C","EPOCH":"2025-10-23T15:00:40.400640","MEAN_MOTION":13.17647514,"ECCENTRICITY":0.0001623,"INCLINATION":87.9122,"RA_OF_ASC_NODE":52.9042,"ARG_OF_PERICENTER":84.2891,"MEAN_ANOMALY":275.8426,"EPHEMERIS_TYPE":0,"CLASSIFICATION_TYPE":"U","NORAD_CAT_ID":49077,"ELEMENT_SET_NO":999,"REV_AT_EPOCH":20247,"BSTAR":-0.00016399,"MEAN_MOTION_DOT":-5.1e-7,"MEAN_MOTION_DDOT":0},{"OBJECT_NAME":"ONEWEB-0288","OBJECT_ID":"2021-075D","EPOCH":"2025-10-23T12:43:37.666848","MEAN_MOTION":13.12443865,"ECCENTRICITY":0.0001844,"INCLINATION":87.8967,"RA_OF_ASC_NODE":37.6657,"ARG_OF_PERICENTER":97.8639,"MEAN_ANOMALY":262.2699,"EPHEMERIS_TYPE":0,"CLASSIFICATION_TYPE":"U","NORAD_CAT_ID":49078,"ELEMENT_SET_NO":999,"REV_AT_EPOCH":20414,"BSTAR":-0.00026487,"MEAN_MOTION_DOT":-8.3e-7,"MEAN_MOTION_DDOT":0},{"OBJECT_NAME":"ONEWEB-0289","OBJECT_ID":"2021-075E","EPOCH":"2025-10-23T14:07:03.352800","MEAN_MOTION":13.17648931,"ECCENTRICITY":0.0002136,"INCLINATION":87.911,"RA_OF_ASC_NODE":52.9323,"ARG_OF_PERICENTER":98.6409,"MEAN_ANOMALY":261.4965,"EPHEMERIS_TYPE":0,"CLASSIFICATION_TYPE":"U","NORAD_CAT_ID":49079,"ELEMENT_SET_NO":999,"REV_AT_EPOCH":20304,"BSTAR":0.00028822,"MEAN_MOTION_DOT":1.25e-6,"MEAN_MOTION_DDOT":0}]
